{
  "type": "FeatureCollection",
  "features": [
    {
      "type": "Feature",
      "properties": {
        "norad_id": 33376,
        "name": "GALAXY 19 (G-19)",
        "group": "intelsat",
        "lat": 0.0266250157454234,
        "lon": 109.29820473619357,
        "alt_km": 35799.50187238907,
        "timestamp": "2025-12-02T08:59:32.387311+00:00",
        "meta_object_name": "GALAXY 19 (G-19)",
        "meta_object_id": "2008-045A",
        "meta_epoch": "2025-12-02T02:50:43.952064",
        "meta_mean_motion": 1.00270184,
        "meta_eccentricity": 0.0003434,
        "meta_inclination": 0.0189,
        "meta_ra_of_asc_node": 350.1053,
        "meta_arg_of_pericenter": 272.4368,
        "meta_mean_anomaly": 114.3498,
        "meta_ephemeris_type": 0,
        "meta_classification_type": "U",
        "meta_norad_cat_id": 33376,
        "meta_element_set_no": 999,
        "meta_rev_at_epoch": 6292,
        "meta_bstar": 0,
        "meta_mean_motion_dot": 0,
        "meta_mean_motion_ddot": 0,
        "tle_line1": "1 33376U 08045A   25336.11856426  .00000000  00000+0  00000+0 0  9999",
        "tle_line2": "2 33376   0.0189 350.1053 0003434 272.4368 114.3498  1.00270184 62927"
      },
      "geometry": {
        "type": "Point",
        "coordinates": [
          109.29820473619357,
          0.0266250157454234
        ]
      }
    },
    {
      "type": "Feature",
      "properties": {
        "norad_id": 35493,
        "name": "FM-5",
        "group": "intelsat",
        "lat": -0.007368783880437055,
        "lon": 120.19693946606577,
        "alt_km": 35781.98334576704,
        "timestamp": "2025-12-02T08:59:32.387328+00:00",
        "meta_object_name": "FM-5",
        "meta_object_id": "2009-034A",
        "meta_epoch": "2025-12-02T03:49:56.186112",
        "meta_mean_motion": 1.00271359,
        "meta_eccentricity": 0.0001362,
        "meta_inclination": 0.0257,
        "meta_ra_of_asc_node": 281.1373,
        "meta_arg_of_pericenter": 241.1286,
        "meta_mean_anomaly": 240.3577,
        "meta_ephemeris_type": 0,
        "meta_classification_type": "U",
        "meta_norad_cat_id": 35493,
        "meta_element_set_no": 999,
        "meta_rev_at_epoch": 4466,
        "meta_bstar": 0,
        "meta_mean_motion_dot": -1.79e-06,
        "meta_mean_motion_ddot": 0,
        "tle_line1": "1 35493U 09034A   25336.15967808 -.00000179  00000+0  00000+0 0  9999",
        "tle_line2": "2 35493   0.0257 281.1373 0001362 241.1286 240.3577  1.00271359 44667"
      },
      "geometry": {
        "type": "Point",
        "coordinates": [
          120.19693946606577,
          -0.007368783880437055
        ]
      }
    },
    {
      "type": "Feature",
      "properties": {
        "norad_id": 36097,
        "name": "INTELSAT 14 (IS-14)",
        "group": "intelsat",
        "lat": -0.02670779585418964,
        "lon": 161.31256368895149,
        "alt_km": 35785.50797833511,
        "timestamp": "2025-12-02T08:59:32.387340+00:00",
        "meta_object_name": "INTELSAT 14 (IS-14)",
        "meta_object_id": "2009-064A",
        "meta_epoch": "2025-12-02T03:17:51.027360",
        "meta_mean_motion": 1.00273179,
        "meta_eccentricity": 0.0002646,
        "meta_inclination": 0.0193,
        "meta_ra_of_asc_node": 297.7637,
        "meta_arg_of_pericenter": 312.5011,
        "meta_mean_anomaly": 185.4495,
        "meta_ephemeris_type": 0,
        "meta_classification_type": "U",
        "meta_norad_cat_id": 36097,
        "meta_element_set_no": 999,
        "meta_rev_at_epoch": 5862,
        "meta_bstar": 0,
        "meta_mean_motion_dot": -2.52e-06,
        "meta_mean_motion_ddot": 0,
        "tle_line1": "1 36097U 09064A   25336.13739615 -.00000252  00000+0  00000+0 0  9996",
        "tle_line2": "2 36097   0.0193 297.7637 0002646 312.5011 185.4495  1.00273179 58629"
      },
      "geometry": {
        "type": "Point",
        "coordinates": [
          161.31256368895149,
          -0.02670779585418964
        ]
      }
    },
    {
      "type": "Feature",
      "properties": {
        "norad_id": 36106,
        "name": "INTELSAT 15 (IS-15)",
        "group": "intelsat",
        "lat": -0.008689389412729563,
        "lon": -68.47984358152749,
        "alt_km": 35778.76057344684,
        "timestamp": "2025-12-02T08:59:32.387351+00:00",
        "meta_object_name": "INTELSAT 15 (IS-15)",
        "meta_object_id": "2009-067A",
        "meta_epoch": "2025-12-02T02:12:14.613120",
        "meta_mean_motion": 1.00270671,
        "meta_eccentricity": 0.0002371,
        "meta_inclination": 0.0103,
        "meta_ra_of_asc_node": 303.6391,
        "meta_arg_of_pericenter": 307.5381,
        "meta_mean_anomaly": 298.2522,
        "meta_ephemeris_type": 0,
        "meta_classification_type": "U",
        "meta_norad_cat_id": 36106,
        "meta_element_set_no": 999,
        "meta_rev_at_epoch": 3925,
        "meta_bstar": 0,
        "meta_mean_motion_dot": -1.64e-06,
        "meta_mean_motion_ddot": 0,
        "tle_line1": "1 36106U 09067A   25336.09183580 -.00000164  00000+0  00000+0 0  9991",
        "tle_line2": "2 36106   0.0103 303.6391 0002371 307.5381 298.2522  1.00270671 39250"
      },
      "geometry": {
        "type": "Point",
        "coordinates": [
          -68.47984358152749,
          -0.008689389412729563
        ]
      }
    },
    {
      "type": "Feature",
      "properties": {
        "norad_id": 36131,
        "name": "DIRECTV 12",
        "group": "intelsat",
        "lat": -0.0016718695540057866,
        "lon": 103.62206267543354,
        "alt_km": 35787.540017218496,
        "timestamp": "2025-12-02T08:59:32.387363+00:00",
        "meta_object_name": "DIRECTV 12",
        "meta_object_id": "2009-075A",
        "meta_epoch": "2025-12-02T03:01:24.835296",
        "meta_mean_motion": 1.00267403,
        "meta_eccentricity": 9e-06,
        "meta_inclination": 0.0096,
        "meta_ra_of_asc_node": 80.2148,
        "meta_arg_of_pericenter": 256.9661,
        "meta_mean_anomaly": 36.6962,
        "meta_ephemeris_type": 0,
        "meta_classification_type": "U",
        "meta_norad_cat_id": 36131,
        "meta_element_set_no": 999,
        "meta_rev_at_epoch": 4457,
        "meta_bstar": 0,
        "meta_mean_motion_dot": -8.2e-07,
        "meta_mean_motion_ddot": 0,
        "tle_line1": "1 36131U 09075A   25336.12598189 -.00000082  00000+0  00000+0 0  9996",
        "tle_line2": "2 36131   0.0096  80.2148 0000090 256.9661  36.6962  1.00267403 44573"
      },
      "geometry": {
        "type": "Point",
        "coordinates": [
          103.62206267543354,
          -0.0016718695540057866
        ]
      }
    },
    {
      "type": "Feature",
      "properties": {
        "norad_id": 36397,
        "name": "INTELSAT 16 (IS-16)",
        "group": "intelsat",
        "lat": -0.002214076283260374,
        "lon": 130.11875279840518,
        "alt_km": 35792.37796606361,
        "timestamp": "2025-12-02T08:59:32.387375+00:00",
        "meta_object_name": "INTELSAT 16 (IS-16)",
        "meta_object_id": "2010-006A",
        "meta_epoch": "2025-12-02T04:54:21.818016",
        "meta_mean_motion": 1.00269286,
        "meta_eccentricity": 0.0002307,
        "meta_inclination": 0.0149,
        "meta_ra_of_asc_node": 304.6687,
        "meta_arg_of_pericenter": 310.3352,
        "meta_mean_anomaly": 173.705,
        "meta_ephemeris_type": 0,
        "meta_classification_type": "U",
        "meta_norad_cat_id": 36397,
        "meta_element_set_no": 999,
        "meta_rev_at_epoch": 5767,
        "meta_bstar": 0,
        "meta_mean_motion_dot": -2.24e-06,
        "meta_mean_motion_ddot": 0,
        "tle_line1": "1 36397U 10006A   25336.20441919 -.00000224  00000+0  00000+0 0  9991",
        "tle_line2": "2 36397   0.0149 304.6687 0002307 310.3352 173.7050  1.00269286 57679"
      },
      "geometry": {
        "type": "Point",
        "coordinates": [
          130.11875279840518,
          -0.002214076283260374
        ]
      }
    },
    {
      "type": "Feature",
      "properties": {
        "norad_id": 37185,
        "name": "XM-5",
        "group": "intelsat",
        "lat": 0.013955620488736506,
        "lon": 91.14654240698135,
        "alt_km": 35781.12546072433,
        "timestamp": "2025-12-02T08:59:32.387386+00:00",
        "meta_object_name": "XM-5",
        "meta_object_id": "2010-053A",
        "meta_epoch": "2025-12-02T02:57:47.680992",
        "meta_mean_motion": 1.00273992,
        "meta_eccentricity": 0.000176,
        "meta_inclination": 0.0657,
        "meta_ra_of_asc_node": 272.5508,
        "meta_arg_of_pericenter": 232.7721,
        "meta_mean_anomaly": 215.1827,
        "meta_ephemeris_type": 0,
        "meta_classification_type": "U",
        "meta_norad_cat_id": 37185,
        "meta_element_set_no": 999,
        "meta_rev_at_epoch": 5550,
        "meta_bstar": 0,
        "meta_mean_motion_dot": -3e-08,
        "meta_mean_motion_ddot": 0,
        "tle_line1": "1 37185U 10053A   25336.12346853 -.00000003  00000+0  00000+0 0  9996",
        "tle_line2": "2 37185   0.0657 272.5508 0001760 232.7721 215.1827  1.00273992 55505"
      },
      "geometry": {
        "type": "Point",
        "coordinates": [
          91.14654240698135,
          0.013955620488736506
        ]
      }
    }
  ]
}